NORAD_CAT_ID,OBJECT_NAME,OBJECT_TYPE,EPOCH,MEAN_MOTION,ECCENTRICITY,INCLINATION,RA_OF_ASC_NODE,ARG_OF_PERICENTER,MEAN_ANOMALY,BSTAR,MEAN_MOTION_DOT,MEAN_MOTION_DDOT,TLE_LINE0,TLE_LINE1,TLE_LINE2,SEMIMAJOR_AXIS,PERIOD,APOGEE,PERIGEE,DECAYED
56801.0,STARLINK-6087,PAYLOAD,2024-05-07 14:22:56,14.98331019,0.0003018,69.9999,216.3905,270.9021,89.1792,-8.0034e-06,-1.88e-06,0.0,0 STARLINK-6087,1 56801U 23078AL  24128.59926982 -.00000188  00000-0 -80034-5 0  9996,2 56801  69.9999 216.3905 0003018 270.9021  89.1792 14.98331019 52655,6950.19,96.107,574.152,569.957,0.0
56801.0,STARLINK-6087,PAYLOAD,2024-05-07 15:59:04,14.98331988,0.0003012,70.0,216.2228,269.0761,91.0053,4.3075e-06,-4.2e-07,0.0,0 STARLINK-6087,1 56801U 23078AL  24128.66602859 -.00000042  00000-0  43075-5 0  9990,2 56801  70.0000 216.2228 0003012 269.0761  91.0053 14.98331988 52660,6950.187,96.107,574.145,569.958,0.0
56801.0,STARLINK-6087,PAYLOAD,2024-05-08 12:48:49,14.9833792,0.0002901,70.0002,214.0348,269.7917,90.291,-0.00011492,-1.464e-05,0.0,0 STARLINK-6087,1 56801U 23078AL  24129.53390602 -.00001464  00000-0 -11492-3 0  9993,2 56801  70.0002 214.0348 0002901 269.7917  90.2910 14.98337920 53056,6950.168,96.106,574.05,570.017,0.0
56801.0,STARLINK-6087,PAYLOAD,2024-05-08 14:24:57,14.98339905,0.0002875,70.0003,213.8667,269.4176,90.6654,-9.1271e-05,-1.182e-05,0.0,0 STARLINK-6087,1 56801U 23078AL  24129.60066366 -.00001182  00000-0 -91271-4 0  9999,2 56801  70.0003 213.8667 0002875 269.4176  90.6654 14.98339905 52808,6950.162,96.106,574.025,570.029,0.0
56801.0,STARLINK-6087,PAYLOAD,2024-05-08 22:25:37,14.98344981,0.000284,70.0006,213.0251,269.4389,90.6445,-0.00024108,-2.969e-05,0.0,0 STARLINK-6087,1 56801U 23078AL  24129.93446216 -.00002969  00000-0 -24108-3 0  9999,2 56801  70.0006 213.0251 0002840 269.4389  90.6445 14.98344981 52853,6950.147,96.106,573.985,570.038,0.0
56801.0,STARLINK-6087,PAYLOAD,2024-05-09 04:50:10,14.98297864,0.0002635,70.0005,212.3517,268.0911,91.9946,0.00056784,6.683e-05,0.0,0 STARLINK-6087,1 56801U 23078AL  24130.20150605  .00006683  00000-0  56784-3 0  9995,2 56801  70.0005 212.3517 0002635 268.0911  91.9946 14.98297864 53158,6950.292,96.109,573.989,570.326,0.0
56801.0,STARLINK-6087,PAYLOAD,2024-05-09 12:50:50,14.98330055,0.0002704,70.0007,211.5099,269.4511,90.6338,6.4387e-05,6.75e-06,0.0,0 STARLINK-6087,1 56801U 23078AL  24130.53530335  .00000675  00000-0  64387-4 0  9997,2 56801  70.0007 211.5099 0002704 269.4511  90.6338 14.98330055 53201,6950.193,96.107,573.937,570.178,0.0
56801.0,STARLINK-6087,PAYLOAD,2024-05-09 14:26:58,14.98331169,0.0002712,70.0007,211.3418,269.1849,90.8999,7.76e-05,8.33e-06,0.0,0 STARLINK-6087,1 56801U 23078AL  24130.60206218  .00000833  00000-0  77600-4 0  9993,2 56801  70.0007 211.3418 0002712 269.1849  90.8999 14.98331169 52957,6950.189,96.107,573.939,570.169,0.0
56801.0,STARLINK-6087,PAYLOAD,2024-05-10 12:52:51,14.98322355,0.0002762,70.0008,208.9855,267.6224,92.4619,-8.9035e-06,-1.99e-06,0.0,0 STARLINK-6087,1 56801U 23078AL  24131.53671036 -.00000199  00000-0 -89035-5 0  9993,2 56801  70.0008 208.9855 0002762 267.6224  92.4619 14.98322355 53359,6950.217,96.107,574.001,570.162,0.0
56801.0,STARLINK-6087,PAYLOAD,2024-05-10 14:28:59,14.98325177,0.0002748,70.0008,208.8172,268.0689,92.0155,-4.1193e-05,-5.84e-06,0.0,0 STARLINK-6087,1 56801U 23078AL  24131.60346963 -.00000584  00000-0 -41193-4 0  9999,2 56801  70.0008 208.8172 0002748 268.0689  92.0155 14.98325177 53103,6950.208,96.107,573.983,570.163,0.0
56801.0,STARLINK-6087,PAYLOAD,2024-05-11 12:54:47,14.98381962,0.0003053,69.9998,206.4594,270.6216,89.4593,0.0004966,5.845e-05,0.0,0 STARLINK-6087,1 56801U 23078AL  24132.53805210  .00005845  00000-0  49660-3 0  9996,2 56801  69.9998 206.4594 0003053 270.6216  89.4593 14.98381962 53509,6950.032,96.104,574.019,569.775,0.0
56801.0,STARLINK-6087,PAYLOAD,2024-05-11 14:30:54,14.98392925,0.0002845,70.0006,206.2916,268.4776,91.6057,0.00062116,7.338e-05,0.0,0 STARLINK-6087,1 56801U 23078AL  24132.60479864  .00007338  00000-0  62116-3 0  9996,2 56801  70.0006 206.2916 0002845 268.4776  91.6057 14.98392925 53514,6949.998,96.103,573.841,569.886,0.0
56801.0,STARLINK-6087,PAYLOAD,2024-05-11 22:31:41,14.98311573,0.0002718,70.0006,205.4504,276.07,84.015,-0.00022208,-2.74e-05,0.0,0 STARLINK-6087,1 56801U 23078AL  24132.93867063 -.00002740  00000-0 -22208-3 0  9996,2 56801  70.0006 205.4504 0002718 276.0700  84.0150 14.98311573 53306,6950.25,96.108,574.004,570.226,0.0
56801.0,STARLINK-6087,PAYLOAD,2024-05-12 04:56:16,14.98277022,0.0002424,69.9991,204.7776,279.6678,80.4207,-0.00060649,-7.312e-05,0.0,0 STARLINK-6087,1 56801U 23078AL  24133.20574958 -.00007312  00000-0 -60649-3 0  9996,2 56801  69.9991 204.7776 0002424 279.6678  80.4207 14.98277022 53602,6950.357,96.11,573.906,570.537,0.0
56801.0,STARLINK-6087,PAYLOAD,2024-05-12 11:20:50,14.98261251,0.0002934,70.0,204.1033,269.4438,90.6385,-0.00069781,-8.394e-05,0.0,0 STARLINK-6087,1 56801U 23078AL  24133.47280943 -.00008394  00000-0 -69781-3 0  9990,2 56801  70.0000 204.1033 0002934 269.4438  90.6385 14.98261251 53644,6950.405,96.111,574.31,570.231,0.0
56801.0,STARLINK-6087,PAYLOAD,2024-05-12 14:33:07,14.98260624,0.0003158,69.9996,203.7669,270.7221,89.3576,-0.00071055,-8.546e-05,0.0,0 STARLINK-6087,1 56801U 23078AL  24133.60633503 -.00008546  00000-0 -71055-3 0  9995,2 56801  69.9996 203.7669 0003158 270.7221  89.3576 14.98260624 53403,6950.407,96.111,574.467,570.078,0.0
56801.0,STARLINK-6087,PAYLOAD,2024-05-12 22:33:45,14.98302026,0.0003509,69.9996,202.9253,270.2408,89.8349,-0.00030718,-3.754e-05,0.0,0 STARLINK-6087,1 56801U 23078AL  24133.94010620 -.00003754  00000-0 -30718-3 0  9998,2 56801  69.9996 202.9253 0003509 270.2408  89.8349 14.98302026 53456,6950.279,96.109,574.583,569.706,0.0
56801.0,STARLINK-6087,PAYLOAD,2024-05-13 04:58:17,14.98329314,0.0003693,69.999,202.2542,272.5031,87.5705,-0.00065338,-7.881e-05,0.0,0 STARLINK-6087,1 56801U 23078AL  24134.20714650 -.00007881  00000-0 -65338-3 0  9993,2 56801  69.9990 202.2542 0003693 272.5031  87.5705 14.98329314 53758,6950.195,96.107,574.627,569.493,0.0
56801.0,STARLINK-6087,PAYLOAD,2024-05-13 11:22:48,14.983367,0.0003329,69.9994,201.5788,268.4348,91.643,-0.00049362,-5.979e-05,0.0,0 STARLINK-6087,1 56801U 23078AL  24134.47417824 -.00005979  00000-0 -49362-3 0  9990,2 56801  69.9994 201.5788 0003329 268.4348  91.6430 14.98336700 53799,6950.172,96.107,574.351,569.723,0.0
56801.0,STARLINK-6087,PAYLOAD,2024-05-14 05:00:17,14.98291482,0.0003261,69.9995,199.7271,268.144,91.9346,0.00078538,9.281e-05,0.0,0 STARLINK-6087,1 56801U 23078AL  24135.20853681  .00009281  00000-0  78538-3 0  9992,2 56801  69.9995 199.7271 0003261 268.1440  91.9346 14.98291482 53909,6950.312,96.109,574.444,569.911,0.0
56801.0,STARLINK-6087,PAYLOAD,2024-05-14 11:24:50,14.98297456,0.0002578,70.0015,199.056,252.9332,107.1545,0.00080279,9.491e-05,0.0,0 STARLINK-6087,1 56801U 23078AL  24135.47557872  .00009491  00000-0  80279-3 0  9992,2 56801  70.0015 199.0560 0002578 252.9332 107.1545 14.98297456 53942,6950.294,96.109,573.95,570.367,0.0
56801.0,STARLINK-6087,PAYLOAD,2024-05-14 21:01:37,14.9833143,0.0003199,70.0001,198.0447,267.1723,92.907,0.00053523,6.299e-05,0.0,0 STARLINK-6087,1 56801U 23078AL  24135.87612739  .00006299  00000-0  53523-3 0  9995,2 56801  70.0001 198.0447 0003199 267.1723  92.9070 14.98331430 53745,6950.188,96.107,574.277,569.83,0.0
56801.0,STARLINK-6087,PAYLOAD,2024-05-15 05:02:16,14.98356733,0.0003318,69.9997,197.2027,266.4996,93.5784,0.00040342,4.727e-05,0.0,0 STARLINK-6087,1 56801U 23078AL  24136.20991307  .00004727  00000-0  40342-3 0  9993,2 56801  69.9997 197.2027 0003318 266.4996  93.5784 14.98356733 54055,6950.11,96.105,574.281,569.669,0.0
56801.0,STARLINK-6087,PAYLOAD,2024-05-15 13:02:55,14.98362722,0.0003095,70.0,196.361,259.4603,100.6208,0.00043145,5.063e-05,0.0,0 STARLINK-6087,1 56801U 23078AL  24136.54370090  .00005063  00000-0  43145-3 0  9998,2 56801  70.0000 196.3610 0003095 259.4603 100.6208 14.98362722 54102,6950.092,96.105,574.108,569.806,0.0
56801.0,STARLINK-6087,PAYLOAD,2024-05-15 21:03:36,14.98368473,0.0003238,69.9997,195.5172,275.0345,85.0444,6.4341e-05,6.75e-06,0.0,0 STARLINK-6087,1 56801U 23078AL  24136.87750008  .00000675  00000-0  64341-4 0  9991,2 56801  69.9997 195.5172 0003238 275.0345  85.0444 14.98368473 53896,6950.074,96.105,574.189,569.688,0.0
56801.0,STARLINK-6087,PAYLOAD,2024-05-16 05:04:17,14.98343823,0.0003259,69.9992,194.677,269.7663,90.3122,-0.00018992,-2.359e-05,0.0,0 STARLINK-6087,1 56801U 23078AL  24137.21131840 -.00002359  00000-0 -18992-3 0  9990,2 56801  69.9992 194.6770 0003259 269.7663  90.3122 14.98343823 54201,6950.15,96.106,574.28,569.75,0.0
56801.0,STARLINK-6087,PAYLOAD,2024-05-16 11:28:49,14.98348211,0.0002917,70.0001,194.0053,265.0607,95.0219,-0.00011257,-1.437e-05,0.0,0 STARLINK-6087,1 56801U 23078AL  24137.47835001 -.00001437  00000-0 -11257-3 0  9991,2 56801  70.0001 194.0053 0002917 265.0607  95.0219 14.98348211 54249,6950.137,96.106,574.029,569.974,0.0
56801.0,STARLINK-6087,PAYLOAD,2024-05-16 21:05:37,14.98350549,0.0003357,69.9993,192.9924,275.4128,84.6648,-0.00022171,-2.739e-05,0.0,0 STARLINK-6087,1 56801U 23078AL  24137.87890525 -.00002739  00000-0 -22171-3 0  9990,2 56801  69.9993 192.9924 0003357 275.4128  84.6648 14.98350549 54047,6950.129,96.106,574.328,569.661,0.0
56801.0,STARLINK-6087,PAYLOAD,2024-05-17 05:06:18,14.98336472,0.0003176,69.9997,192.153,271.9107,88.1688,-0.00046112,-5.592e-05,0.0,0 STARLINK-6087,1 56801U 23078AL  24138.21271749 -.00005592  00000-0 -46112-3 0  9991,2 56801  69.9997 192.1530 0003176 271.9107  88.1688 14.98336472 54359,6950.173,96.107,574.245,569.831,0.0
56801.0,STARLINK-6087,PAYLOAD,2024-05-17 13:06:58,14.98340262,0.00031,69.9996,191.3115,269.0439,91.0365,-0.00038967,-4.741e-05,0.0,0 STARLINK-6087,1 56801U 23078AL  24138.54651089 -.00004741  00000-0 -38967-3 0  9990,2 56801  69.9996 191.3115 0003100 269.0439  91.0365 14.98340262 54145,6950.161,96.106,574.181,569.872,0.0
